IRIDIUM 106             
1 41917U 17003A   25188.85761807  .00000055  00000+0  12540-4 0  9994
2 41917  86.3960 232.3650 0001922  84.5525 275.5890 14.34217869443855
IRIDIUM 103             
1 41918U 17003B   25189.40308262  .00000010  00000+0 -34932-5 0  9991
2 41918  86.3960 232.0375 0002585  80.6853 279.4635 14.34217632443964
IRIDIUM 109             
1 41919U 17003C   25188.85127630  .00000075  00000+0  19594-4 0  9994
2 41919  86.3961 232.3223 0002524  92.7496 267.3989 14.34218066443848
IRIDIUM 102             
1 41920U 17003D   25189.37771139  .00000053  00000+0  11926-4 0  9990
2 41920  86.3957 232.0328 0002384  95.3389 264.8079 14.34217725444004
IRIDIUM 105             
1 41921U 17003E   25188.79029713  .00000134  00000+0  40714-4 0  9997
2 41921  86.3984 200.7514 0002462  86.3808 273.7669 14.34217639445770
IRIDIUM 104             
1 41922U 17003F   25189.18109181  .00000046  00000+0  93217-5 0  9999
2 41922  86.3960 232.1527 0002754  91.5217 268.6294 14.34217604443962
IRIDIUM 114             
1 41923U 17003G   25189.11766332  .00000171  00000+0  54167-4 0  9999
2 41923  86.3960 232.1634 0002434  86.1601 273.9873 14.34218996443950
IRIDIUM 108             
1 41924U 17003H   25188.79711158  .00000067  00000+0  16884-4 0  9997
2 41924  86.3979 200.6487 0002125  91.4172 268.7267 14.34217899445745
